OBJECT_NAME,OBJECT_ID,EPOCH,MEAN_MOTION,ECCENTRICITY,INCLINATION,RA_OF_ASC_NODE,ARG_OF_PERICENTER,MEAN_ANOMALY,EPHEMERIS_TYPE,CLASSIFICATION_TYPE,NORAD_CAT_ID,ELEMENT_SET_NO,REV_AT_EPOCH,BSTAR,MEAN_MOTION_DOT,MEAN_MOTION_DDOT
SCD 1,1993-009B,2026-06-06T16:56:42.000288,14.46115352,.0042067,24.9697,272.2934,27.3556,195.1516,0,U,22490,999,75959,.64442E-4,.421E-5,0
TECHSAT 1B (GO-32),1998-043D,2026-06-06T14:21:22.434912,14.24426350,.0000464,99.0065,150.0898,193.9791,166.1374,0,U,25397,999,44982,.49896E-4,.69E-6,0
SCD 2,1998-060A,2026-06-06T17:28:52.000032,14.45521731,.0016782,24.9937,136.6572,13.5623,343.0044,0,U,25504,999,45880,.63933E-4,.411E-5,0
DLR-TUBSAT,1999-029B,2026-06-06T19:43:50.188224,14.52424196,.0014682,98.6693,152.9851,26.2174,333.9761,0,U,25757,999,43174,.41318E-4,.12E-5,0
TERRA,1999-068A,2026-06-06T21:24:38.473344,14.61094933,.0000877,97.9460,207.8461,242.1878,231.5569,0,U,25994,999,40810,.91438E-4,.405E-5,0
MAROC-TUBSAT,2001-056D,2026-06-06T18:28:20.994816,13.70261951,.0020008,99.8080,334.4332,167.4602,204.3011,0,U,27004,999,22476,.21322E-4,-.28E-6,0
AQUA,2002-022A,2026-06-06T20:41:25.707840,14.62142370,.0001507,98.4272,126.9391,55.3541,29.1016,0,U,27424,999,28176,.18286E-3,.87E-5,0
SHIYAN-1 (SY-1),2004-012A,2026-06-06T20:59:33.242784,15.33496630,.0006452,97.8687,235.2758,66.1322,294.0595,0,U,28220,999,20951,.4833E-3,.15586E-3,0
AURA,2004-026A,2026-06-06T18:48:41.717952,14.61313239,.000135,98.3412,114.1514,70.9576,289.1771,0,U,28376,999,16469,.18194E-3,.85E-5,0
IRS-P5 (CARTOSAT-1),2005-017A,2026-06-06T19:27:16.169184,14.91022033,.0002647,97.5311,181.3459,93.0459,267.1063,0,U,28649,999,14227,.1659E-3,.1588E-4,0
SINAH 1,2005-043D,2026-06-06T20:55:05.694816,14.64150767,.0013394,98.2848,292.1338,312.0858,47.9204,0,U,28893,999,9901,.76398E-4,.353E-5,0
RESURS-DK 1,2006-021A,2026-06-06T20:31:39.036288,15.13170757,.0006334,69.9339,6.2973,300.4330,59.6209,0,U,29228,999,10101,.15267E-3,.2607E-4,0
ARIRANG-2 (KOMPSAT-2),2006-031A,2026-06-06T20:24:18.959616,14.64654107,.0015822,97.8307,342.7969,104.1837,8.5155,0,U,29268,999,5996,.98834E-4,.481E-5,0
LAPAN-TUBSAT,2007-001A,2026-06-06T19:36:21.749760,14.85939517,.0011133,98.1344,156.8074,214.6574,145.3916,0,U,29709,999,4961,.87286E-4,.704E-5,0
HAIYANG-1B,2007-010A,2026-06-06T15:45:44.814816,14.31024275,.0012446,98.3489,139.9106,229.3816,130.6286,0,U,31113,999,99912,.56407E-4,.107E-5,0
COSMO-SKYMED 1,2007-023A,2026-06-06T20:12:22.066848,14.97054880,.0001298,97.8860,349.6118,80.4432,279.6936,0,U,31598,999,2824,.20421E-3,.2293E-4,0
TERRASAR-X,2007-026A,2026-06-06T10:55:28.835904,15.19152015,.0001807,97.4446,165.3145,76.8069,283.3367,0,U,31698,999,5159,.42342E-4,.822E-5,0
WORLDVIEW-1 (WV-1),2007-041A,2026-06-06T20:29:24.097632,15.24152038,.0003154,97.3863,277.7479,49.0332,311.1178,0,U,32060,999,4130,.28644E-3,.69E-4,0
YAOGAN-3,2007-055A,2026-06-06T20:35:15.348192,14.90742012,.0001993,97.8161,187.8382,87.5856,272.5590,0,U,32289,999,433,.20877E-3,.1995E-4,0
COSMO-SKYMED 2,2007-059A,2026-06-06T19:57:57.212352,14.82163257,.000144,97.8885,341.5803,87.7244,272.4134,0,U,32376,999,47,.66271E-4,.475E-5,0
RADARSAT-2,2007-061A,2026-06-06T21:24:32.097888,14.29982829,.0001314,98.5780,164.9718,81.9077,278.2254,0,U,32382,999,96448,.43678E-4,.69E-6,0
CARTOSAT-2A,2008-021A,2026-06-06T19:58:28.545312,14.79223532,.0012593,97.7634,206.8941,139.2204,220.9952,0,U,32783,999,97727,.13856E-3,.98E-5,0
HUANJING 1A (HJ-1A),2008-041A,2026-06-06T20:23:44.118816,14.83962405,.0019056,97.6685,144.0883,167.5996,192.5691,0,U,33320,999,95687,.16536E-3,.1328E-4,0
HUANJING 1B (HJ-1B),2008-041B,2026-06-06T21:09:37.083744,14.83301249,.0035092,97.6521,147.3221,215.4788,144.4092,0,U,33321,999,95688,.16251E-3,.1292E-4,0
GEOEYE 1,2008-042A,2026-06-06T20:04:44.170176,14.64716102,.0005579,98.1236,231.8988,94.2050,265.9791,0,U,33331,999,94863,.10539E-3,.514E-5,0
THEOS,2008-049A,2026-06-06T21:26:53.603808,14.20131273,.0001307,98.5570,215.5114,79.1124,281.0200,0,U,33396,999,91650,-.36043E-4,-.119E-5,0
COSMO-SKYMED 3,2008-054A,2026-06-06T20:25:12.836064,15.06890041,.0014224,97.8294,16.2499,305.9424,54.0482,0,U,33412,999,95538,.32262E-3,.4761E-4,0
YAOGAN-4,2008-061A,2026-06-06T13:48:29.847744,14.83180349,.0015704,97.9307,91.1644,103.7531,256.5431,0,U,33446,999,94409,.15E-3,.1173E-4,0
GOSAT (IBUKI),2009-002A,2026-06-06T13:40:58.838016,14.67539173,.0001545,98.0880,268.7848,91.3741,268.7641,0,U,33492,999,92990,.17705E-4,.52E-6,0
DEIMOS-1,2009-041A,2026-06-06T19:24:40.730400,14.75227512,.0000953,97.7398,315.4872,137.3978,222.7306,0,U,35681,999,90535,.13018E-3,.833E-5,0
DUBAISAT-1,2009-041B,2026-06-05T21:31:17.553216,14.75106477,.0011726,98.0039,290.2794,105.7067,254.5437,0,U,35682,999,90343,.15747E-3,.1012E-4,0
