SCD 1                   
1 22490U 93009B   26157.70604167  .00000421  00000+0  64442-4 0  9990
2 22490  24.9697 272.2934 0042067  27.3556 195.1516 14.46115352759597
TECHSAT 1B (GO-32)      
1 25397U 98043D   26157.59817633  .00000069  00000+0  49896-4 0  9997
2 25397  99.0065 150.0898 0000464 193.9791 166.1374 14.24426350449827
SCD 2                   
1 25504U 98060A   26157.72837963  .00000411  00000+0  63933-4 0  9998
2 25504  24.9937 136.6572 0016782  13.5623 343.0044 14.45521731458802
DLR-TUBSAT              
1 25757U 99029B   26157.82210866  .00000120  00000+0  41318-4 0  9992
2 25757  98.6693 152.9851 0014682  26.2174 333.9761 14.52424196431742
TERRA                   
1 25994U 99068A   26157.89211196  .00000405  00000+0  91438-4 0  9996
2 25994  97.9460 207.8461 0000877 242.1878 231.5569 14.61094933408102
MAROC-TUBSAT            
1 27004U 01056D   26157.76968744 -.00000028  00000+0  21322-4 0  9991
2 27004  99.8080 334.4332 0020008 167.4602 204.3011 13.70261951224764
AQUA                    
1 27424U 02022A   26157.86210310  .00000870  00000+0  18286-3 0  9999
2 27424  98.4272 126.9391 0001507  55.3541  29.1016 14.62142370281763
SHIYAN-1 (SY-1)         
1 28220U 04012A   26157.87469031  .00015586  00000+0  48330-3 0  9995
2 28220  97.8687 235.2758 0006452  66.1322 294.0595 15.33496630209511
AURA                    
1 28376U 04026A   26157.78381618  .00000850  00000+0  18194-3 0  9999
2 28376  98.3412 114.1514 0001350  70.9576 289.1771 14.61313239164699
IRS-P5 (CARTOSAT-1)     
1 28649U 05017A   26157.81060381  .00001588  00000+0  16590-3 0  9995
2 28649  97.5311 181.3459 0002647  93.0459 267.1063 14.91022033142273
SINAH 1                 
1 28893U 05043D   26157.87159369  .00000353  00000+0  76398-4 0  9998
2 28893  98.2848 292.1338 0013394 312.0858  47.9204 14.64150767 99012
RESURS-DK 1             
1 29228U 06021A   26157.85531292  .00002607  00000+0  15267-3 0  9996
2 29228  69.9339   6.2973 0006334 300.4330  59.6209 15.13170757101011
ARIRANG-2 (KOMPSAT-2)   
1 29268U 06031A   26157.85021944  .00000481  00000+0  98834-4 0  9999
2 29268  97.8307 342.7969 0015822 104.1837   8.5155 14.64654107 59966
LAPAN-TUBSAT            
1 29709U 07001A   26157.81691840  .00000704  00000+0  87286-4 0  9998
2 29709  98.1344 156.8074 0011133 214.6574 145.3916 14.85939517 49618
HAIYANG-1B              
1 31113U 07010A   26157.65676869  .00000107  00000+0  56407-4 0  9994
2 31113  98.3489 139.9106 0012446 229.3816 130.6286 14.31024275999124
COSMO-SKYMED 1          
1 31598U 07023A   26157.84192207  .00002293  00000+0  20421-3 0  9999
2 31598  97.8860 349.6118 0001298  80.4432 279.6936 14.97054880 28243
TERRASAR-X              
1 31698U 07026A   26157.45519486  .00000822  00000+0  42342-4 0  9995
2 31698  97.4446 165.3145 0001807  76.8069 283.3367 15.19152015 51592
WORLDVIEW-1 (WV-1)      
1 32060U 07041A   26157.85375113  .00006900  00000+0  28644-3 0  9998
2 32060  97.3863 277.7479 0003154  49.0332 311.1178 15.24152038 41307
YAOGAN-3                
1 32289U 07055A   26157.85781653  .00001995  00000+0  20877-3 0  9995
2 32289  97.8161 187.8382 0001993  87.5856 272.5590 14.90742012  4336
COSMO-SKYMED 2          
1 32376U 07059A   26157.83191218  .00000475  00000+0  66271-4 0  9997
2 32376  97.8885 341.5803 0001440  87.7244 272.4134 14.82163257   476
RADARSAT-2              
1 32382U 07061A   26157.89203817  .00000069  00000+0  43678-4 0  9997
2 32382  98.5780 164.9718 0001314  81.9077 278.2254 14.29982829964489
CARTOSAT-2A             
1 32783U 08021A   26157.83227483  .00000980  00000+0  13856-3 0  9994
2 32783  97.7634 206.8941 0012593 139.2204 220.9952 14.79223532977271
HUANJING 1A (HJ-1A)     
1 33320U 08041A   26157.84981619  .00001328  00000+0  16536-3 0  9998
2 33320  97.6685 144.0883 0019056 167.5996 192.5691 14.83962405956876
HUANJING 1B (HJ-1B)     
1 33321U 08041B   26157.88167921  .00001292  00000+0  16251-3 0  9999
2 33321  97.6521 147.3221 0035092 215.4788 144.4092 14.83301249956883
GEOEYE 1                
1 33331U 08042A   26157.83662234  .00000514  00000+0  10539-3 0  9992
2 33331  98.1236 231.8988 0005579  94.2050 265.9791 14.64716102948630
THEOS                   
1 33396U 08049A   26157.89367597 -.00000119  00000+0 -36043-4 0  9992
2 33396  98.5570 215.5114 0001307  79.1124 281.0200 14.20131273916502
COSMO-SKYMED 3          
1 33412U 08054A   26157.85084301  .00004761  00000+0  32262-3 0  9995
2 33412  97.8294  16.2499 0014224 305.9424  54.0482 15.06890041955382
YAOGAN-4                
1 33446U 08061A   26157.57534546  .00001173  00000+0  15000-3 0  9995
2 33446  97.9307  91.1644 0015704 103.7531 256.5431 14.83180349944092
GOSAT (IBUKI)           
1 33492U 09002A   26157.57012544  .00000052  00000+0  17705-4 0  9991
2 33492  98.0880 268.7848 0001545  91.3741 268.7641 14.67539173929908
DEIMOS-1                
1 35681U 09041A   26157.80880475  .00000833  00000+0  13018-3 0  9997
2 35681  97.7398 315.4872 0000953 137.3978 222.7306 14.75227512905353
DUBAISAT-1              
1 35682U 09041B   26156.89673094  .00001012  00000+0  15747-3 0  9994
2 35682  98.0039 290.2794 0011726 105.7067 254.5437 14.75106477903432
